FENGYUN 1C DEB          
1 31088U 99025BGJ 17343.51610147  .00000796  00000-0  45843-3 0  9997
2 31088  99.4507 190.5861 0036973 337.7170  51.9726 14.12053339551330
